ATLAS CENTAUR 2         
1 00694U 63047A   26158.38717920  .00001994  00000+0  23095-3 0  9992
2 00694  30.3538  54.1973 0546001 151.0751 212.1278 14.12497212144317
THOR AGENA D R/B        
1 00733U 64002A   26158.80761440  .00000217  00000+0  94676-4 0  9992
2 00733  99.1157 177.0336 0032812 358.1677   1.9381 14.34061986251212
SL-3 R/B                
1 00877U 64053B   26158.13359707  .00000197  00000+0  62246-4 0  9997
2 00877  65.0773  68.9904 0081183 264.2360  94.9480 14.61422356279862
SL-8 R/B                
1 02802U 67045B   26158.81306692  .00000271  00000+0  82397-4 0  9993
2 02802  74.0093 179.7669 0063808 166.5384 193.7496 14.45678502102048
SL-8 R/B                
1 03230U 68040B   26158.66960784  .00003908  00000+0  28545-3 0  9990
2 03230  74.0295 129.7546 0026031 284.4822  75.3479 15.03769987103535
OAO 2                   
1 03597U 68110A   26158.18960117  .00000215  00000+0  62950-4 0  9998
2 03597  34.9922 125.5011 0005788 200.6413 159.4044 14.47348055 32074
ISIS 1                  
1 03669U 69009A   26158.63271487  .00000088  00000+0  65788-4 0  9991
2 03669  88.4419 145.4497 1705984 267.5382  73.0235 11.30432624358698
SERT 2                  
1 04327U 70009A   26158.75498189 -.00000004  00000+0  51827-4 0  9996
2 04327  99.2840  96.9744 0004095 302.8333 114.5742 13.58738504792128
SL-3 R/B                
1 05118U 71028B   26158.74582008  .00048366  00000+0  41841-3 0  9996
2 05118  81.2333 300.1502 0013686 315.5791  44.4367 15.68852969  2765
ASTEX 1                 
1 05560U 71089A   26158.76135553  .00000486  00000+0  12323-3 0  9999
2 05560  92.7000 180.8200 0017212 134.1742 226.0882 14.50844589875365
SL-8 R/B                
1 05730U 71119B   26158.84399789  .00004521  00000+0  23285-3 0  9997
2 05730  73.8879   6.9764 0543847 314.8272  40.9864 14.39444732668450
OAO 3 (COPERNICUS)      
1 06153U 72065A   26158.68268683  .00000325  00000+0  71014-4 0  9990
2 06153  35.0041 144.5608 0006657 182.1687 344.1725 14.60055226859352
ATLAS CENTAUR R/B       
1 06155U 72065B   26158.61732897  .00001285  00000+0  17737-3 0  9995
2 06155  35.0001 138.6446 0032984  46.6843 313.6600 14.77902216854574
SL-8 R/B                
1 08459U 75112B   26158.58096549  .00000197  00000+0  73519-4 0  9995
2 08459  74.0601 213.5460 0016812 281.6818  78.2449 14.38241810644795
SL-3 R/B                
1 10114U 77057B   26158.71344303  .00012039  00000+0  23457-3 0  9998
2 10114  97.5844 334.7974 0005891 326.7024  33.3854 15.47686535682248
SEASAT 1                
1 10967U 78064A   26158.69433507  .00000384  00000+0  14550-3 0  9999
2 10967 108.0163 314.3624 0002076 241.3955 118.6982 14.46236426519526
SL-14 R/B               
1 11267U 79011B   26158.85345786  .00000553  00000+0  51903-4 0  9997
2 11267  82.5243  11.0127 0017392 113.9571 246.3472 14.92006046542229
SL-8 R/B                
1 11574U 79089B   26158.70307405  .00000286  00000+0  94260-4 0  9999
2 11574  74.0695 284.4137 0014843  72.0471 288.2302 14.42399928449082
SL-14 R/B               
1 11672U 80005B   26158.65738716  .00000537  00000+0  51677-4 0  9999
2 11672  82.5148 221.8795 0014674 218.9795 141.0368 14.91021735489898
SL-8 R/B                
1 12139U 81003B   26158.63514816  .00014828  00000+0  36691-3 0  9994
2 12139  82.9376 206.6451 0250385 224.6550 133.4281 15.13942177328278
SL-3 R/B                
1 12465U 81046B   26158.79292418  .00010723  00000+0  23295-3 0  9997
2 12465  81.2302 181.3839 0019282  68.7281 291.6019 15.44004285452320
SL-3 R/B                
1 12904U 81103B   26158.78566137  .00005161  00000+0  22317-3 0  9994
2 12904  81.1580 107.6771 0012516 349.4868  10.6100 15.22207557986936
SL-3 R/B                
1 13068U 82013B   26158.76034705  .00003679  00000+0  15577-3 0  9998
2 13068  81.1744  55.1218 0020808 233.9080 126.0226 15.22729558418053
SL-3 R/B                
1 13154U 82039B   26158.76084184  .00003657  00000+0  21848-3 0  9992
2 13154  81.1422 111.9794 0029963  26.8399 333.4368 15.10482017395233
SL-3 R/B                
1 13403U 82079B   26158.80358491  .00005559  00000+0  21549-3 0  9994
2 13403  81.1459  86.5849 0023014 217.8956 142.0659 15.25712343391439
SL-14 R/B               
1 13553U 82092B   26158.76380683  .00000475  00000+0  50458-4 0  9992
2 13553  82.5687  57.1207 0020503   6.9251  51.0667 14.86741425342310
SL-3 R/B                
1 13819U 83010B   26158.69304517  .00015380  00000+0  28226-3 0  9990
2 13819  81.1020 251.6551 0015940  94.2185 266.0883 15.48983888371869
SL-3 R/B                
1 14208U 83075B   26158.77973243  .00010601  00000+0  26348-3 0  9995
2 14208  97.6108 166.9010 0018783 265.9095  94.0003 15.40323877344012
COSMOS 1536             
1 14699U 84013A   26158.64811142  .00005972  00000+0  23787-3 0  9996
2 14699  82.5450  18.3453 0013343 332.3761  27.6766 15.24954458286320
SL-14 R/B               
1 14820U 84027B   26158.51889031  .00000506  00000+0  54918-4 0  9994
2 14820  82.5406 160.7838 0018958  40.0729 320.1881 14.86052748260970
SL-8 R/B                
1 15483U 85006B   26158.57490919  .00000307  00000+0  11043-3 0  9997
2 15483  74.0454  95.7516 0018503 344.6314 189.2125 14.37830957166943
